COSMOS 2503             
1 40420U 15009A   26068.69626972  .00002817  00000+0  19590-3 0  9998
2 40420  97.8437 123.7175 0015321 225.7450 134.2520 15.06275973603958
STARLINK-3252           
1 49733U 21115K   26068.51596401  .00000687  00000+0  61263-4 0  9991
2 49733  53.2181 159.9016 0001289  93.3486 266.7653 15.08849963235369
